{"type": "FeatureCollection", "features": [ {"type": "Feature", "properties": {"norad_id": 34304, "name": "COSMOS 2251 DEB", "group": "cosmos-2251-debris", "lat": 66.8735716636687, "lon": -124.54448512074728, "alt_km": 811.314105032201, "timestamp": "2025-12-26T06:43:29.905741+00:00", "meta": {"OBJECT_NAME": "COSMOS 2251 DEB", "OBJECT_ID": "1993-036NA", "EPOCH": "2025-12-25T08:50:34.993248", "MEAN_MOTION": 14.37981033, "ECCENTRICITY": 0.0128954, "INCLINATION": 74.0138, "RA_OF_ASC_NODE": 99.299, "ARG_OF_PERICENTER": 234.5497, "MEAN_ANOMALY": 195.566, "EPHEMERIS_TYPE": 0, "CLASSIFICATION_TYPE": "U", "NORAD_CAT_ID": 34304, "ELEMENT_SET_NO": 999, "REV_AT_EPOCH": 87478, "BSTAR": 0.0017049, "MEAN_MOTION_DOT": 5.652e-05, "MEAN_MOTION_DDOT": 0}, "tle": {"line1": "1 34304U 93036NA  25359.36846057  .00005652  00000+0  17049-2 0  9998", "line2": "2 34304  74.0138  99.2990 0128954 234.5497 195.5660 14.37981033874785"}}, "geometry": {"type": "Point", "coordinates": [-124.54448512074728, 66.8735716636687]}}, {"type": "Feature", "properties": {"norad_id": 34307, "name": "COSMOS 2251 DEB", "group": "cosmos-2251-debris", "lat": -25.43793806378257, "lon": 119.20439990209559, "alt_km": 1035.3544605944917, "timestamp": "2025-12-26T06:43:29.905752+00:00", "meta": {"OBJECT_NAME": "COSMOS 2251 DEB", "OBJECT_ID": "1993-036ND", "EPOCH": "2025-12-25T21:10:12.847296", "MEAN_MOTION": 13.54341758, "ECCENTRICITY": 0.03917609, "INCLINATION": 74.0541, "RA_OF_ASC_NODE": 292.0274, "ARG_OF_PERICENTER": 120.067, "MEAN_ANOMALY": 301.5561, "EPHEMERIS_TYPE": 0, "CLASSIFICATION_TYPE": "U", "NORAD_CAT_ID": 34307, "ELEMENT_SET_NO": 999, "REV_AT_EPOCH": 83040, "BSTAR": 0.00076006499, "MEAN_MOTION_DOT": 8.27e-06, "MEAN_MOTION_DDOT": 0}, "tle": {"line1": "1 34307U 93036ND  25359.88209314  .00000827  00000+0  76006-3 0  9995", "line2": "2 34307  74.0541 292.0274 0391760 120.0670 301.5561 13.54341758830405"}}, "geometry": {"type": "Point", "coordinates": [119.20439990209559, -25.43793806378257]}}, {"type": "Feature", "properties": {"norad_id": 34313, "name": "COSMOS 2251 DEB", "group": "cosmos-2251-debris", "lat": 28.579947637445432, "lon": 87.97795640975868, "alt_km": 499.68437545879806, "timestamp": "2025-12-26T06:43:29.905763+00:00", "meta": {"OBJECT_NAME": "COSMOS 2251 DEB", "OBJECT_ID": "1993-036NK", "EPOCH": "2025-12-25T19:01:20.019648", "MEAN_MOTION": 15.21429219, "ECCENTRICITY": 0.00122021, "INCLINATION": 73.971, "RA_OF_ASC_NODE": 278.0165, "ARG_OF_PERICENTER": 60.7999, "MEAN_ANOMALY": 299.4418, "EPHEMERIS_TYPE": 0, "CLASSIFICATION_TYPE": "U", "NORAD_CAT_ID": 34313, "ELEMENT_SET_NO": 999, "REV_AT_EPOCH": 89263, "BSTAR": 0.0045433658, "MEAN_MOTION_DOT": 0.00103678, "MEAN_MOTION_DDOT": 0}, "tle": {"line1": "1 34313U 93036NK  25359.79259282  .00103678  00000+0  45434-2 0  9999", "line2": "2 34313  73.9710 278.0165 0012202  60.7999 299.4418 15.21429219892630"}}, "geometry": {"type": "Point", "coordinates": [87.97795640975868, 28.579947637445432]}}, {"type": "Feature", "properties": {"norad_id": 34314, "name": "COSMOS 2251 DEB", "group": "cosmos-2251-debris", "lat": -23.72173830522779, "lon": 111.46015328219195, "alt_km": 913.7105481900198, "timestamp": "2025-12-26T06:43:29.905774+00:00", "meta": {"OBJECT_NAME": "COSMOS 2251 DEB", "OBJECT_ID": "1993-036NL", "EPOCH": "2025-12-25T19:53:15.069696", "MEAN_MOTION": 14.17456813, "ECCENTRICITY": 0.01035519, "INCLINATION": 74.0062, "RA_OF_ASC_NODE": 285.0254, "ARG_OF_PERICENTER": 27.6162, "MEAN_ANOMALY": 33.6381, "EPHEMERIS_TYPE": 0, "CLASSIFICATION_TYPE": "U", "NORAD_CAT_ID": 34314, "ELEMENT_SET_NO": 999, "REV_AT_EPOCH": 86843, "BSTAR": 0.00061005965, "MEAN_MOTION_DOT": 1.279e-05, "MEAN_MOTION_DDOT": 0}, "tle": {"line1": "1 34314U 93036NL  25359.82864664  .00001279  00000+0  61006-3 0  9998", "line2": "2 34314  74.0062 285.0254 0103551  27.6162  33.6381 14.17456813868434"}}, "geometry": {"type": "Point", "coordinates": [111.46015328219195, -23.72173830522779]}}, {"type": "Feature", "properties": {"norad_id": 34316, "name": "COSMOS 2251 DEB", "group": "cosmos-2251-debris", "lat": 63.61929823710803, "lon": -15.071210416248805, "alt_km": 579.2594174259639, "timestamp": "2025-12-26T06:43:29.905784+00:00", "meta": {"OBJECT_NAME": "COSMOS 2251 DEB", "OBJECT_ID": "1993-036NN", "EPOCH": "2025-12-25T14:19:44.175648", "MEAN_MOTION": 14.92240854, "ECCENTRICITY": 0.000919, "INCLINATION": 74.0656, "RA_OF_ASC_NODE": 311.1258, "ARG_OF_PERICENTER": 32.3565, "MEAN_ANOMALY": 327.818, "EPHEMERIS_TYPE": 0, "CLASSIFICATION_TYPE": "U", "NORAD_CAT_ID": 34316, "ELEMENT_SET_NO": 999, "REV_AT_EPOCH": 89401, "BSTAR": 0.0019689, "MEAN_MOTION_DOT": 0.00020121, "MEAN_MOTION_DDOT": 0}, "tle": {"line1": "1 34316U 93036NN  25359.59703907  .00020121  00000+0  19689-2 0  9992", "line2": "2 34316  74.0656 311.1258 0009190  32.3565 327.8180 14.92240854894011"}}, "geometry": {"type": "Point", "coordinates": [-15.071210416248805, 63.61929823710803]}}, {"type": "Feature", "properties": {"norad_id": 34317, "name": "COSMOS 2251 DEB", "group": "cosmos-2251-debris", "lat": 58.19585464417944, "lon": 165.75760289411593, "alt_km": 1120.0130777217728, "timestamp": "2025-12-26T06:43:29.905795+00:00", "meta": {"OBJECT_NAME": "COSMOS 2251 DEB", "OBJECT_ID": "1993-036NP", "EPOCH": "2025-12-24T19:53:47.023008", "MEAN_MOTION": 13.65137258, "ECCENTRICITY": 0.03369655, "INCLINATION": 73.9242, "RA_OF_ASC_NODE": 15.8553, "ARG_OF_PERICENTER": 2.7883, "MEAN_ANOMALY": 182.3062, "EPHEMERIS_TYPE": 0, "CLASSIFICATION_TYPE": "U", "NORAD_CAT_ID": 34317, "ELEMENT_SET_NO": 999, "REV_AT_EPOCH": 83784, "BSTAR": 0.00062515685, "MEAN_MOTION_DOT": 7.24e-06, "MEAN_MOTION_DDOT": 0}, "tle": {"line1": "1 34317U 93036NP  25358.82901647  .00000724  00000+0  62516-3 0  9994", "line2": "2 34317  73.9242  15.8553 0336965   2.7883 182.3062 13.65137258837847"}}, "geometry": {"type": "Point", "coordinates": [165.75760289411593, 58.19585464417944]}}, {"type": "Feature", "properties": {"norad_id": 34321, "name": "COSMOS 2251 DEB", "group": "cosmos-2251-debris", "lat": -23.95414525174559, "lon": 123.61175522654902, "alt_km": 727.5511388245122, "timestamp": "2025-12-26T06:43:29.905805+00:00", "meta": {"OBJECT_NAME": "COSMOS 2251 DEB", "OBJECT_ID": "1993-036NT", "EPOCH": "2025-12-25T19:49:55.565184", "MEAN_MOTION": 14.50112007, "ECCENTRICITY": 0.00160413, "INCLINATION": 74.0288, "RA_OF_ASC_NODE": 131.774, "ARG_OF_PERICENTER": 260.6384, "MEAN_ANOMALY": 225.892, "EPHEMERIS_TYPE": 0, "CLASSIFICATION_TYPE": "U", "NORAD_CAT_ID": 34321, "ELEMENT_SET_NO": 999, "REV_AT_EPOCH": 88676, "BSTAR": 0.00065748716, "MEAN_MOTION_DOT": 2.529e-05, "MEAN_MOTION_DDOT": 0}, "tle": {"line1": "1 34321U 93036NT  25359.82633756  .00002529  00000+0  65749-3 0  9999", "line2": "2 34321  74.0288 131.7740 0016041 260.6384 225.8920 14.50112007886762"}}, "geometry": {"type": "Point", "coordinates": [123.61175522654902, -23.95414525174559]}}, {"type": "Feature", "properties": {"norad_id": 34323, "name": "COSMOS 2251 DEB", "group": "cosmos-2251-debris", "lat": 67.60905317502842, "lon": -127.7844854828363, "alt_km": 604.3860992031896, "timestamp": "2025-12-26T06:43:29.905815+00:00", "meta": {"OBJECT_NAME": "COSMOS 2251 DEB", "OBJECT_ID": "1993-036NV", "EPOCH": "2025-12-25T17:46:30.349920", "MEAN_MOTION": 14.7482066, "ECCENTRICITY": 0.00571799, "INCLINATION": 73.9528, "RA_OF_ASC_NODE": 97.5927, "ARG_OF_PERICENTER": 138.3754, "MEAN_ANOMALY": 344.1097, "EPHEMERIS_TYPE": 0, "CLASSIFICATION_TYPE": "U", "NORAD_CAT_ID": 34323, "ELEMENT_SET_NO": 999, "REV_AT_EPOCH": 88631, "BSTAR": 0.0022699911, "MEAN_MOTION_DOT": 0.00015618, "MEAN_MOTION_DDOT": 0}, "tle": {"line1": "1 34323U 93036NV  25359.74062905  .00015618  00000+0  22700-2 0  9996", "line2": "2 34323  73.9528  97.5927 0057179 138.3754 344.1097 14.74820660886312"}}, "geometry": {"type": "Point", "coordinates": [-127.7844854828363, 67.60905317502842]}}, {"type": "Feature", "properties": {"norad_id": 34325, "name": "COSMOS 2251 DEB", "group": "cosmos-2251-debris", "lat": 33.467435830808284, "lon": -22.08030314008488, "alt_km": 766.4608112018386, "timestamp": "2025-12-26T06:43:29.905826+00:00", "meta": {"OBJECT_NAME": "COSMOS 2251 DEB", "OBJECT_ID": "1993-036NX", "EPOCH": "2025-12-25T20:22:01.149888", "MEAN_MOTION": 14.04557216, "ECCENTRICITY": 0.01913228, "INCLINATION": 73.8708, "RA_OF_ASC_NODE": 169.7082, "ARG_OF_PERICENTER": 184.6073, "MEAN_ANOMALY": 300.2116, "EPHEMERIS_TYPE": 0, "CLASSIFICATION_TYPE": "U", "NORAD_CAT_ID": 34325, "ELEMENT_SET_NO": 999, "REV_AT_EPOCH": 85699, "BSTAR": 0.0020443656, "MEAN_MOTION_DOT": 3.821e-05, "MEAN_MOTION_DDOT": 0}, "tle": {"line1": "1 34325U 93036NX  25359.84862442  .00003821  00000+0  20444-2 0  9999", "line2": "2 34325  73.8708 169.7082 0191322 184.6073 300.2116 14.04557216856997"}}, "geometry": {"type": "Point", "coordinates": [-22.08030314008488, 33.467435830808284]}}, {"type": "Feature", "properties": {"norad_id": 34327, "name": "COSMOS 2251 DEB", "group": "cosmos-2251-debris", "lat": 45.71021918535517, "lon": -52.36294215963362, "alt_km": 618.616062063008, "timestamp": "2025-12-26T06:43:29.905836+00:00", "meta": {"OBJECT_NAME": "COSMOS 2251 DEB", "OBJECT_ID": "1993-036NZ", "EPOCH": "2025-12-25T21:00:08.868960", "MEAN_MOTION": 14.89478709, "ECCENTRICITY": 0.00337459, "INCLINATION": 73.9942, "RA_OF_ASC_NODE": 145.5616, "ARG_OF_PERICENTER": 319.4868, "MEAN_ANOMALY": 160.9451, "EPHEMERIS_TYPE": 0, "CLASSIFICATION_TYPE": "U", "NORAD_CAT_ID": 34327, "ELEMENT_SET_NO": 999, "REV_AT_EPOCH": 89703, "BSTAR": 0.0013743907, "MEAN_MOTION_DOT": 0.00013213, "MEAN_MOTION_DDOT": 0}, "tle": {"line1": "1 34327U 93036NZ  25359.87510265  .00013213  00000+0  13744-2 0  9998", "line2": "2 34327  73.9942 145.5616 0033745 319.4868 160.9451 14.89478709897034"}}, "geometry": {"type": "Point", "coordinates": [-52.36294215963362, 45.71021918535517]}}]}